[{"OBJECT_NAME":"JILIN-1 GAOFEN 03D13","OBJECT_ID":"2022-019Y","EPOCH":"2026-03-09T22:29:05.103168","MEAN_MOTION":15.66086161,"ECCENTRICITY":0.00041625,"INCLINATION":97.3674,"RA_OF_ASC_NODE":159.1591,"ARG_OF_PERICENTER":171.5165,"MEAN_ANOMALY":188.6166,"EPHEMERIS_TYPE":0,"CLASSIFICATION_TYPE":"U","NORAD_CAT_ID":51846,"ELEMENT_SET_NO":999,"REV_AT_EPOCH":22427,"BSTAR":0.0010266873,"MEAN_MOTION_DOT":0.00106185,"MEAN_MOTION_DDOT":0},{"OBJECT_NAME":"CZ-2C R\/B","OBJECT_ID":"2004-012C","EPOCH":"2026-03-09T17:41:22.317504","MEAN_MOTION":15.64506189,"ECCENTRICITY":0.00129222,"INCLINATION":97.7227,"RA_OF_ASC_NODE":134.0339,"ARG_OF_PERICENTER":309.1452,"MEAN_ANOMALY":50.8657,"EPHEMERIS_TYPE":0,"CLASSIFICATION_TYPE":"U","NORAD_CAT_ID":28222,"ELEMENT_SET_NO":999,"REV_AT_EPOCH":20428,"BSTAR":0.00056669008,"MEAN_MOTION_DOT":0.00054864,"MEAN_MOTION_DDOT":0}]
